STARLINK-36930          
1 68018U 26040D   26080.91667824  .00013077  00000+0  88571-4 0  9994
2 68018  97.2851  29.9615 0001315  97.1186 125.7033 15.75148112  4393
STARLINK-36921          
1 68019U 26040E   26080.91667824  .00039386  00000+0  26420-3 0  9990
2 68019  97.2841  29.9750 0001645  68.5651 176.2460 15.75146683  4394
STARLINK-36928          
1 68020U 26040F   26080.91667824  .00085730  00000+0  57162-3 0  9993
2 68020  97.2846  29.9708 0001105 116.9183 121.9257 15.75120188  4396
STARLINK-36858          
1 68021U 26040G   26080.55467771  .00054113  00000+0  28136-3 0  9993
2 68021  97.2794  29.7491 0001531 111.2783 248.8649 15.80826224  3239
STARLINK-36916          
1 68022U 26040H   26080.91667824  .00054510  00000+0  36491-3 0  9999
2 68022  97.2855  29.9739 0001200  78.3569 172.4712 15.75131927  4397
STARLINK-36871          
1 68023U 26040J   26080.91667824  .00040694  00000+0  27298-3 0  9993
2 68023  97.2852  29.9742 0001470  97.6076 155.2155 15.75140325  4397
STARLINK-36891          
1 68024U 26040K   26080.91667824  .00074533  00000+0  49756-3 0  9996
2 68024  97.2854  29.9762 0001423  96.8852 159.9461 15.75127527  4393
STARLINK-36378          
1 68025U 26040L   26080.91667824  .00084805  00000+0  56649-3 0  9999
2 68025  97.2849  29.9831 0001538  56.4568 208.4334 15.75080002  4348
STARLINK-36884          
1 68026U 26040M   26080.91667824 -.00031402  00000+0 -21070-3 0  9997
2 68026  97.2852  29.9790 0001524  80.1692 182.6601 15.75159872  4391
STARLINK-36940          
1 68027U 26040N   26080.91667824  .00070319  00000+0  47042-3 0  9993
2 68027  97.2848  30.0080 0001211 105.0084 207.8314 15.75092522  4497
STARLINK-36253          
1 68028U 26040P   26080.91667824 -.01971410  00000+0 -26599-1 0  9991
2 68028  97.2849  29.7113 0001547 100.3377 249.7475 15.61109970  4490
STARLINK-36944          
1 68029U 26040Q   26080.91667824  .00097381  00000+0  64915-3 0  9991
2 68029  97.2856  29.9812 0001359  75.7735 193.0893 15.75089380  4392
